[
    {
        "Altitude(m)": 605470.7367216692,
        "Argument of Periapsis(deg)": 0.0,
        "Eccentricity": 0.0,
        "Inclination(deg)": 60.0,
        "Latitude(deg)": 27.988033161925387,
        "Longitude(deg)": -107.73703603681359,
        "Mean Anomaly(deg)": 147.27270000000001,
        "RAAN(deg)": 190.0,
        "Satellite Name": "Test1 845",
        "Satellite Number": 845,
        "Semi-Major Axis(m)": 6980739.136638005,
        "Time(s)": 0
    },
    {
        "Altitude(m)": 605395.7752013931,
        "Argument of Periapsis(deg)": 0.00010418945913296404,
        "Eccentricity": 0.0,
        "Inclination(deg)": 60.0,
        "Latitude(deg)": 27.473723647977337,
        "Longitude(deg)": -107.38384917271576,
        "Mean Anomaly(deg)": 147.8928061454618,
        "RAAN(deg)": 189.99957995086027,
        "Satellite Name": "Test1 845",
        "Satellite Number": 845,
        "Semi-Major Axis(m)": 6980739.136638005,
        "Time(s)": 10
    },
    {
        "Altitude(m)": 605322.6163624215,
        "Argument of Periapsis(deg)": 0.0002083789182659281,
        "Eccentricity": 0.0,
        "Inclination(deg)": 60.0,
        "Latitude(deg)": 26.95826834716522,
        "Longitude(deg)": -107.03431048493515,
        "Mean Anomaly(deg)": 148.51291229092362,
        "RAAN(deg)": 189.99915990172053,
        "Satellite Name": "Test1 845",
        "Satellite Number": 845,
        "Semi-Major Axis(m)": 6980739.136638005,
        "Time(s)": 20
    },
    {
        "Altitude(m)": 605251.3158790083,
        "Argument of Periapsis(deg)": 0.00031256837739889213,
        "Eccentricity": 0.0,
        "Inclination(deg)": 60.0,
        "Latitude(deg)": 26.441701761639703,
        "Longitude(deg)": -106.68831532435077,
        "Mean Anomaly(deg)": 149.13301843638544,
        "RAAN(deg)": 189.9987398525808,
        "Satellite Name": "Test1 845",
        "Satellite Number": 845,
        "Semi-Major Axis(m)": 6980739.136638005,
        "Time(s)": 30
    },
    {
        "Altitude(m)": 605181.928697459,
        "Argument of Periapsis(deg)": 0.0004167578365318562,
        "Eccentricity": 0.0,
        "Inclination(deg)": 60.0,
        "Latitude(deg)": 25.92405753926572,
        "Longitude(deg)": -106.34576077430185,
        "Mean Anomaly(deg)": 149.75312458184726,
        "RAAN(deg)": 189.99831980344103,
        "Satellite Name": "Test1 845",
        "Satellite Number": 845,
        "Semi-Major Axis(m)": 6980739.136638005,
        "Time(s)": 40
    },
    {
        "Altitude(m)": 605114.5090071958,
        "Argument of Periapsis(deg)": 0.0005209472956648203,
        "Eccentricity": 0.0,
        "Inclination(deg)": 60.0,
        "Latitude(deg)": 25.405368506177005,
        "Longitude(deg)": -106.00654659446477,
        "Mean Anomaly(deg)": 150.37323072730914,
        "RAAN(deg)": 189.9978997543013,
        "Satellite Name": "Test1 845",
        "Satellite Number": 845,
        "Semi-Major Axis(m)": 6980739.136638005,
        "Time(s)": 50
    },
    {
        "Altitude(m)": 605049.110212111,
        "Argument of Periapsis(deg)": 0.0006251367547977843,
        "Eccentricity": 0.0,
        "Inclination(deg)": 60.0,
        "Latitude(deg)": 24.885666698212848,
        "Longitude(deg)": -105.67057465265619,
        "Mean Anomaly(deg)": 150.99333687277095,
        "RAAN(deg)": 189.99747970516157,
        "Satellite Name": "Test1 845",
        "Satellite Number": 845,
        "Semi-Major Axis(m)": 6980739.136638005,
        "Time(s)": 60
    },
    {
        "Altitude(m)": 604985.7849023123,
        "Argument of Periapsis(deg)": 0.0007293262139307483,
        "Eccentricity": 0.0,
        "Inclination(deg)": 60.0,
        "Latitude(deg)": 24.36498339127822,
        "Longitude(deg)": -105.33774835749357,
        "Mean Anomaly(deg)": 151.6134430182328,
        "RAAN(deg)": 189.99705965602183,
        "Satellite Name": "Test1 845",
        "Satellite Number": 845,
        "Semi-Major Axis(m)": 6980739.136638005,
        "Time(s)": 70
    },
    {
        "Altitude(m)": 604924.5848261912,
        "Argument of Periapsis(deg)": 0.0008335156730637124,
        "Eccentricity": 0.0,
        "Inclination(deg)": 60.0,
        "Latitude(deg)": 23.843349130665352,
        "Longitude(deg)": -105.00797360483256,
        "Mean Anomaly(deg)": 152.23354916369462,
        "RAAN(deg)": 189.99663960688207,
        "Satellite Name": "Test1 845",
        "Satellite Number": 845,
        "Semi-Major Axis(m)": 6980739.136638005,
        "Time(s)": 80
    },
    {
        "Altitude(m)": 604865.5608628845,
        "Argument of Periapsis(deg)": 0.0009377051321966765,
        "Eccentricity": 0.0,
        "Inclination(deg)": 60.0,
        "Latitude(deg)": 23.320793759373064,
        "Longitude(deg)": -104.68115821227822,
        "Mean Anomaly(deg)": 152.8536553091565,
        "RAAN(deg)": 189.99621955774234,
        "Satellite Name": "Test1 845",
        "Satellite Number": 845,
        "Semi-Major Axis(m)": 6980739.136638005,
        "Time(s)": 90
    },
    {
        "Altitude(m)": 604808.7629950942,
        "Argument of Periapsis(deg)": 0.0010418945913296407,
        "Eccentricity": 0.0,
        "Inclination(deg)": 60.0,
        "Latitude(deg)": 22.79734644546097,
        "Longitude(deg)": -104.35721135467088,
        "Mean Anomaly(deg)": 153.4737614546183,
        "RAAN(deg)": 189.99579950860257,
        "Satellite Name": "Test1 845",
        "Satellite Number": 845,
        "Semi-Major Axis(m)": 6980739.136638005,
        "Time(s)": 100
    },
    {
        "Altitude(m)": 604754.2402823335,
        "Argument of Periapsis(deg)": 0.0011460840504626045,
        "Eccentricity": 0.0,
        "Inclination(deg)": 60.0,
        "Latitude(deg)": 22.27303570847567,
        "Longitude(deg)": -104.03604451344573,
        "Mean Anomaly(deg)": 154.09386760008013,
        "RAAN(deg)": 189.9953794594628,
        "Satellite Name": "Test1 845",
        "Satellite Number": 845,
        "Semi-Major Axis(m)": 6980739.136638005,
        "Time(s)": 110
    },
    {
        "Altitude(m)": 604702.040834583,
        "Argument of Periapsis(deg)": 0.0012502735095955685,
        "Eccentricity": 0.0,
        "Inclination(deg)": 60.0,
        "Latitude(deg)": 21.747889444982082,
        "Longitude(deg)": -103.71757091413699,
        "Mean Anomaly(deg)": 154.71397374554195,
        "RAAN(deg)": 189.9949594103231,
        "Satellite Name": "Test1 845",
        "Satellite Number": 845,
        "Semi-Major Axis(m)": 6980739.136638005,
        "Time(s)": 120
    },
    {
        "Altitude(m)": 604652.2117863661,
        "Argument of Periapsis(deg)": 0.0013544629687285324,
        "Eccentricity": 0.0,
        "Inclination(deg)": 60.0,
        "Latitude(deg)": 21.22193495323475,
        "Longitude(deg)": -103.40170496491211,
        "Mean Anomaly(deg)": 155.33407989100374,
        "RAAN(deg)": 189.99453936118337,
        "Satellite Name": "Test1 845",
        "Satellite Number": 845,
        "Semi-Major Axis(m)": 6980739.136638005,
        "Time(s)": 130
    },
    {
        "Altitude(m)": 604604.7992712543,
        "Argument of Periapsis(deg)": 0.0014586524278614966,
        "Eccentricity": 0.0,
        "Inclination(deg)": 60.0,
        "Latitude(deg)": 20.695198957024136,
        "Longitude(deg)": -103.08836320901376,
        "Mean Anomaly(deg)": 155.95418603646564,
        "RAAN(deg)": 189.9941193120436,
        "Satellite Name": "Test1 845",
        "Satellite Number": 845,
        "Semi-Major Axis(m)": 6980739.136638005,
        "Time(s)": 140
    },
    {
        "Altitude(m)": 604559.8483968826,
        "Argument of Periapsis(deg)": 0.0015628418869944607,
        "Eccentricity": 0.0,
        "Inclination(deg)": 60.0,
        "Latitude(deg)": 20.16770762872765,
        "Longitude(deg)": -102.77746376536737,
        "Mean Anomaly(deg)": 156.57429218192743,
        "RAAN(deg)": 189.99369926290385,
        "Satellite Name": "Test1 845",
        "Satellite Number": 845,
        "Semi-Major Axis(m)": 6980739.136638005,
        "Time(s)": 150
    },
    {
        "Altitude(m)": 604517.4032203765,
        "Argument of Periapsis(deg)": 0.0016670313461274247,
        "Eccentricity": 0.0,
        "Inclination(deg)": 60.0,
        "Latitude(deg)": 19.639486611598088,
        "Longitude(deg)": -102.4689257702234,
        "Mean Anomaly(deg)": 157.19439832738925,
        "RAAN(deg)": 189.99327921376414,
        "Satellite Name": "Test1 845",
        "Satellite Number": 845,
        "Semi-Major Axis(m)": 6980739.136638005,
        "Time(s)": 160
    },
    {
        "Altitude(m)": 604477.506724281,
        "Argument of Periapsis(deg)": 0.0017712208052603888,
        "Eccentricity": 0.0,
        "Inclination(deg)": 60.0,
        "Latitude(deg)": 19.110561041322192,
        "Longitude(deg)": -102.16267033270158,
        "Mean Anomaly(deg)": 157.8145044728511,
        "RAAN(deg)": 189.9928591646244,
        "Satellite Name": "Test1 845",
        "Satellite Number": 845,
        "Semi-Major Axis(m)": 6980739.136638005,
        "Time(s)": 170
    },
    {
        "Altitude(m)": 604440.2007930045,
        "Argument of Periapsis(deg)": 0.001875410264393353,
        "Eccentricity": 0.0,
        "Inclination(deg)": 60.0,
        "Latitude(deg)": 18.5809555668759,
        "Longitude(deg)": -101.85861997848231,
        "Mean Anomaly(deg)": 158.43461061831295,
        "RAAN(deg)": 189.99243911548464,
        "Satellite Name": "Test1 845",
        "Satellite Number": 845,
        "Semi-Major Axis(m)": 6980739.136638005,
        "Time(s)": 180
    },
    {
        "Altitude(m)": 604405.5261897598,
        "Argument of Periapsis(deg)": 0.0019795997235263173,
        "Eccentricity": 0.0,
        "Inclination(deg)": 60.0,
        "Latitude(deg)": 18.050694370707056,
        "Longitude(deg)": -101.55669809450472,
        "Mean Anomaly(deg)": 159.0547167637748,
        "RAAN(deg)": 189.99201906634488,
        "Satellite Name": "Test1 845",
        "Satellite Number": 845,
        "Semi-Major Axis(m)": 6980739.136638005,
        "Time(s)": 190
    }
]